[{"OBJECT_NAME":"STARLINK-3597","OBJECT_ID":"2022-022AY","EPOCH":"2026-03-09T04:41:57.200352","MEAN_MOTION":15.08844101,"ECCENTRICITY":0.00014957,"INCLINATION":53.2196,"RA_OF_ASC_NODE":1.3366,"ARG_OF_PERICENTER":92.6992,"MEAN_ANOMALY":267.4172,"EPHEMERIS_TYPE":0,"CLASSIFICATION_TYPE":"U","NORAD_CAT_ID":51898,"ELEMENT_SET_NO":999,"REV_AT_EPOCH":22322,"BSTAR":-7.190575e-6,"MEAN_MOTION_DOT":-4.02e-6,"MEAN_MOTION_DDOT":0},{"OBJECT_NAME":"OBJECT H","OBJECT_ID":"2017-042H","EPOCH":"2026-03-09T21:54:40.929408","MEAN_MOTION":15.07257911,"ECCENTRICITY":0.00117342,"INCLINATION":97.4058,"RA_OF_ASC_NODE":233.05,"ARG_OF_PERICENTER":93.954,"MEAN_ANOMALY":266.303,"EPHEMERIS_TYPE":0,"CLASSIFICATION_TYPE":"U","NORAD_CAT_ID":42832,"ELEMENT_SET_NO":999,"REV_AT_EPOCH":47198,"BSTAR":0.00041037265,"MEAN_MOTION_DOT":6.138e-5,"MEAN_MOTION_DDOT":0}]
